OBJECT_NAME,OBJECT_ID,EPOCH,MEAN_MOTION,ECCENTRICITY,INCLINATION,RA_OF_ASC_NODE,ARG_OF_PERICENTER,MEAN_ANOMALY,EPHEMERIS_TYPE,CLASSIFICATION_TYPE,NORAD_CAT_ID,ELEMENT_SET_NO,REV_AT_EPOCH,BSTAR,MEAN_MOTION_DOT,MEAN_MOTION_DDOT
SL-16 R/B,1994-077B,2026-07-01T23:02:32.908704,14.15578101,.00038062,70.9833,112.0836,314.3113,45.7697,0,U,23405,999,63240,-.17821957E-4,-.83E-6,0
ARIANE 40+ R/B,1995-021B,2026-07-01T22:44:32.632224,14.39841615,.00073785,98.4407,252.8090,151.3336,23.0319,0,U,23561,999,63568,.10929668E-3,.3E-5,0
SL-16 R/B,1995-058B,2026-07-01T11:28:11.440416,14.15511121,.00145893,71.0228,301.3543,300.7628,59.2058,0,U,23705,999,58395,-.86037942E-4,-.216E-5,0
SL-16 R/B,1996-051B,2026-07-01T18:17:00.815136,14.12451293,.0016728,70.7654,293.8043,316.0295,43.9493,0,U,24298,999,53775,.11673456E-3,.167E-5,0
ORBVIEW 2 (SEASTAR),1997-037A,2026-07-01T22:27:13.300704,14.35561196,.00033354,98.8700,350.3642,87.1498,273.0068,0,U,24883,999,52486,.10516671E-3,.256E-5,0
SL-16 R/B,1998-043G,2026-07-01T21:16:36.992928,14.26071065,.00106901,98.8371,137.1727,47.8697,312.3390,0,U,25400,999,45526,.4410104E-4,.6E-6,0
SL-16 R/B,1998-045B,2026-07-01T12:05:16.786464,14.16206425,.00088069,71.0128,302.2208,223.6337,136.4090,0,U,25407,999,44321,.12948738E-3,.209E-5,0
ISS (ZARYA),1998-067A,2026-07-01T12:11:46.289760,15.49503254,.00042241,51.6311,229.1989,255.0896,104.9625,0,U,25544,999,57397,.11826728E-3,.6185E-4,0
CZ-4B R/B,1999-025C,2026-07-01T14:53:22.281792,14.18285869,.00374155,98.6477,224.0953,18.8780,144.7945,0,U,25732,999,40431,.50423618E-4,.62E-6,0
OKEAN-O,1999-039A,2026-07-01T21:05:24.387936,14.80484465,.00011902,97.9309,241.5076,70.7105,289.4236,0,U,25860,999,45128,.86723851E-4,.612E-5,0
SL-16 R/B,1999-039B,2026-07-01T21:17:06.614304,14.81859724,.00135061,97.9831,241.7077,244.3868,115.5950,0,U,25861,999,45377,.77255889E-4,.557E-5,0
DELTA 2 R/B,1999-041E,2026-07-01T18:09:12.616992,14.12044791,.0501083,51.7617,205.5935,325.0741,31.8245,0,U,25876,999,37914,.2337052E-3,.1217E-4,0
HELIOS 1B,1999-064A,2026-07-01T23:20:10.688352,14.88045835,.00023896,98.1600,88.5393,70.8858,289.2616,0,U,25977,999,70225,.16933354E-3,.1497E-4,0
TERRA,1999-068A,2026-07-01T21:35:14.824896,14.61114918,.0002699,97.9448,231.8619,150.2199,23.0372,0,U,25994,999,41175,.10011493E-3,.448E-5,0
SL-16 R/B,2000-006B,2026-07-01T11:28:12.402048,14.15840703,.0016473,71.0012,218.5768,0.2891,359.8239,0,U,26070,999,36466,.6163163E-4,.74E-6,0
TITAN 4B R/B,2000-047B,2026-07-01T23:04:49.095840,15.10277764,.00458711,67.9889,78.9851,272.2022,87.3876,0,U,26474,999,41016,.1856287E-3,.2982E-4,0
ENVISAT,2002-009A,2026-07-01T20:16:13.312992,14.39068108,.0001375,98.3840,133.8366,85.3512,305.7309,0,U,27386,999,27559,.40815327E-4,.83E-6,0
IDEFIX & ARIANE 42P R/B,2002-021B,2026-07-01T19:29:29.601024,14.31088653,.00110717,98.5943,120.1369,206.7806,153.2807,0,U,27422,999,26034,.98945136E-4,.217E-5,0
AQUA,2002-022A,2026-07-01T21:39:25.816896,14.62180459,.0000699,98.4284,152.4798,79.7486,333.3720,0,U,27424,999,28542,.1732053E-3,.822E-5,0
CZ-4B R/B,2002-024C,2026-07-01T21:41:30.352992,14.14566637,.00510454,98.8692,235.6280,59.2917,113.0431,0,U,27432,999,24538,.45144821E-4,.44E-6,0
MIDORI II (ADEOS-II),2002-056A,2026-07-01T21:48:02.456064,14.29357373,.00019464,98.7886,142.2938,56.6262,303.5106,0,U,27597,999,22661,.11785084E-3,.255E-5,0
H-2A R/B,2002-056E,2026-07-01T20:49:24.991968,14.33828376,.00700102,98.3320,139.0075,180.4520,198.7879,0,U,27601,999,23047,.89904349E-4,.215E-5,0
CZ-4B R/B,2003-049C,2026-07-01T22:43:11.455968,14.55109399,.0047007,98.6900,182.3810,242.3883,117.2536,0,U,28059,999,20321,.81095178E-4,.303E-5,0
CZ-2C R/B,2004-012C,2026-07-01T18:52:34.415616,15.82051334,.00109563,97.7066,260.1802,231.6700,128.3583,0,U,28222,999,22220,.64997677E-3,.134203E-2,0
SL-16 R/B,2004-021B,2026-07-01T20:51:56.133216,14.14610103,.00066675,71.0012,352.8747,236.8394,123.2089,0,U,28353,999,13898,.1684782E-3,.276E-5,0
CZ-4B R/B,2004-035C,2026-07-01T20:11:04.871904,15.30829763,.00288479,97.3355,215.7507,282.9865,76.8155,0,U,28415,999,19736,.29755599E-3,.8901E-4,0
CZ-2C R/B,2004-046B,2026-07-01T16:56:17.152512,14.27029874,.01393295,98.1933,90.5786,177.1699,183.0304,0,U,28480,999,12476,.53903978E-4,.105E-5,0
ARIANE 5 R/B,2004-049H,2026-07-01T22:47:02.448960,14.85466398,.00834002,98.2731,355.7733,341.6474,18.1735,0,U,28499,999,16275,.6848641E-4,.562E-5,0
CZ-2D R/B,2005-024B,2026-07-01T19:29:09.736800,15.71222846,.00005078,97.3471,202.9863,332.5556,27.5680,0,U,28738,999,15763,.54626619E-3,.69281E-3,0
ALOS (DAICHI),2006-002A,2026-07-01T20:39:19.651104,14.70079608,.00009053,98.1330,138.3829,61.9515,298.1782,0,U,28931,999,9025,.18860232E-3,.1083E-4,0
