SL-16 R/B               
1 23405U 94077B   26182.96010311 -.00000083  00000+0 -17822-4 0  9997
2 23405  70.9833 112.0836 0003806 314.3113  45.7697 14.15578101632406
ARIANE 40+ R/B          
1 23561U 95021B   26182.94759991  .00000300  00000+0  10930-3 0  9994
2 23561  98.4407 252.8090 0007378 151.3336  23.0319 14.39841615635682
SL-16 R/B               
1 23705U 95058B   26182.47791019 -.00000216  00000+0 -86038-4 0  9990
2 23705  71.0228 301.3543 0014589 300.7628  59.2058 14.15511121583952
SL-16 R/B               
1 24298U 96051B   26182.76181499  .00000167  00000+0  11673-3 0  9994
2 24298  70.7654 293.8043 0016728 316.0295  43.9493 14.12451293537756
ORBVIEW 2 (SEASTAR)     
1 24883U 97037A   26182.93557061  .00000256  00000+0  10517-3 0  9995
2 24883  98.8700 350.3642 0003335  87.1498 273.0068 14.35561196524865
SL-16 R/B               
1 25400U 98043G   26182.88653927  .00000060  00000+0  44101-4 0  9991
2 25400  98.8371 137.1727 0010690  47.8697 312.3390 14.26071065455269
SL-16 R/B               
1 25407U 98045B   26182.50366651  .00000209  00000+0  12949-3 0  9993
2 25407  71.0128 302.2208 0008806 223.6337 136.4090 14.16206425443212
ISS (ZARYA)             
1 25544U 98067A   26182.50817465  .00006185  00000+0  11827-3 0  9996
2 25544  51.6311 229.1989 0004224 255.0896 104.9625 15.49503254573972
CZ-4B R/B               
1 25732U 99025C   26182.62039678  .00000062  00000+0  50424-4 0  9990
2 25732  98.6477 224.0953 0037415  18.8780 144.7945 14.18285869404317
OKEAN-O                 
1 25860U 99039A   26182.87875449  .00000612  00000+0  86724-4 0  9991
2 25860  97.9309 241.5076 0001190  70.7105 289.4236 14.80484465451284
SL-16 R/B               
1 25861U 99039B   26182.88688211  .00000557  00000+0  77256-4 0  9990
2 25861  97.9831 241.7077 0013506 244.3868 115.5950 14.81859724453770
DELTA 2 R/B             
1 25876U 99041E   26182.75639603  .00001217  00000+0  23371-3 0  9998
2 25876  51.7617 205.5935 0501083 325.0741  31.8245 14.12044791379145
HELIOS 1B               
1 25977U 99064A   26182.97234593  .00001497  00000+0  16933-3 0  9994
2 25977  98.1600  88.5393 0002389  70.8858 289.2616 14.88045835702256
TERRA                   
1 25994U 99068A   26182.89947714  .00000448  00000+0  10011-3 0  9990
2 25994  97.9448 231.8619 0002699 150.2199  23.0372 14.61114918411756
SL-16 R/B               
1 26070U 00006B   26182.47792132  .00000074  00000+0  61632-4 0  9997
2 26070  71.0012 218.5768 0016473   0.2891 359.8239 14.15840703364663
TITAN 4B R/B            
1 26474U 00047B   26182.96167935  .00002982  00000+0  18563-3 0  9995
2 26474  67.9889  78.9851 0045871 272.2022  87.3876 15.10277764410163
ENVISAT                 
1 27386U 02009A   26182.84459853  .00000083  00000+0  40815-4 0  9994
2 27386  98.3840 133.8366 0001375  85.3512 305.7309 14.39068108275595
IDEFIX & ARIANE 42P R/B 
1 27422U 02021B   26182.81214816  .00000217  00000+0  98945-4 0  9990
2 27422  98.5943 120.1369 0011071 206.7806 153.2807 14.31088653260348
AQUA                    
1 27424U 02022A   26182.90238214  .00000822  00000+0  17321-3 0  9991
2 27424  98.4284 152.4798 0000699  79.7486 333.3720 14.62180459285429
CZ-4B R/B               
1 27432U 02024C   26182.90382353  .00000044  00000+0  45145-4 0  9998
2 27432  98.8692 235.6280 0051045  59.2917 113.0431 14.14566637245384
MIDORI II (ADEOS-II)    
1 27597U 02056A   26182.90836176  .00000255  00000+0  11785-3 0  9998
2 27597  98.7886 142.2938 0001946  56.6262 303.5106 14.29357373226613
H-2A R/B                
1 27601U 02056E   26182.86765037  .00000215  00000+0  89904-4 0  9991
2 27601  98.3320 139.0075 0070010 180.4520 198.7879 14.33828376230476
CZ-4B R/B               
1 28059U 03049C   26182.94666037  .00000303  00000+0  81095-4 0  9992
2 28059  98.6900 182.3810 0047007 242.3883 117.2536 14.55109399203218
CZ-2C R/B               
1 28222U 04012C   26182.78650944  .00134203  00000+0  64998-3 0  9996
2 28222  97.7066 260.1802 0010956 231.6700 128.3583 15.82051334222202
SL-16 R/B               
1 28353U 04021B   26182.86939969  .00000276  00000+0  16848-3 0  9990
2 28353  71.0012 352.8747 0006667 236.8394 123.2089 14.14610103138985
CZ-4B R/B               
1 28415U 04035C   26182.84102861  .00008901  00000+0  29756-3 0  9990
2 28415  97.3355 215.7507 0028847 282.9865  76.8155 15.30829763197362
CZ-2C R/B               
1 28480U 04046B   26182.70575408  .00000105  00000+0  53904-4 0  9991
2 28480  98.1933  90.5786 0139329 177.1699 183.0304 14.27029874124762
ARIANE 5 R/B            
1 28499U 04049H   26182.94933390  .00000562  00000+0  68486-4 0  9996
2 28499  98.2731 355.7733 0083400 341.6474  18.1735 14.85466398162751
CZ-2D R/B               
1 28738U 05024B   26182.81191825  .00069281  00000+0  54627-3 0  9995
2 28738  97.3471 202.9863 0000507 332.5556  27.5680 15.71222846157630
ALOS (DAICHI)           
1 28931U 06002A   26182.86064411  .00001083  00000+0  18860-3 0  9997
2 28931  98.1330 138.3829 0000905  61.9515 298.1782 14.70079608 90259
